start=new Date('2022-12-18T00:00:00.000Z').valueOf();
sats=[{"OBJECT_TYPE":"PAYLOAD","REF_FRAME":"TEME","PERIOD":"95.593","EPOCH":"2022-12-17T10:54:17.280288","SITE":"AFETR","DECAY_DATE":null,"REV_AT_EPOCH":"8943","CLASSIFICATION_TYPE":"U","CENTER_NAME":"EARTH","INCLINATION":"53.0550","OBJECT_ID":"2021-038H","FILE":"3705911","EPHEMERIS_TYPE":"0","RCS_SIZE":"LARGE","MEAN_MOTION_DOT":"0.00000138","TLE_LINE1":"1 48360U 21038H   22351.45436667  .00000138  00000-0  28138-4 0  9997","OBJECT_NAME":"STARLINK-2622","MEAN_ELEMENT_THEORY":"SGP4","NORAD_CAT_ID":"48360","MEAN_MOTION_DDOT":"0.0000000000000","APOAPSIS":"548.163","BSTAR":"0.00002813800000","LAUNCH_DATE":"2021-05-04","SEMIMAJOR_AXIS":"6925.374","MEAN_ANOMALY":"289.6058","ARG_OF_PERICENTER":"70.5075","TLE_LINE2":"2 48360  53.0550 250.9362 0001334  70.5075 289.6058 15.06391624 89432","MEAN_MOTION":"15.06391624","GP_ID":"220705693","COUNTRY_CODE":"US","ELEMENT_SET_NO":"999","ECCENTRICITY":"0.00013340","TIME_SYSTEM":"UTC","RA_OF_ASC_NODE":"250.9362","PERIAPSIS":"546.315"},{"MEAN_ELEMENT_THEORY":"SGP4","NORAD_CAT_ID":"48361","MEAN_MOTION_DDOT":"0.0000000000000","APOAPSIS":"548.135","LAUNCH_DATE":"2021-05-04","BSTAR":"0.00006979000000","SEMIMAJOR_AXIS":"6925.342","FILE":"3707070","EPHEMERIS_TYPE":"0","RCS_SIZE":"LARGE","TLE_LINE1":"1 48361U 21038J   22351.71606436  .00000758  00000-0  69790-4 0  9997","MEAN_MOTION_DOT":"0.00000758","OBJECT_NAME":"STARLINK-2591","SITE":"AFETR","DECAY_DATE":null,"CLASSIFICATION_TYPE":"U","REV_AT_EPOCH":"8947","CENTER_NAME":"EARTH","INCLINATION":"53.0540","OBJECT_ID":"2021-038J","OBJECT_TYPE":"PAYLOAD","REF_FRAME":"TEME","PERIOD":"95.592","EPOCH":"2022-12-17T17:11:07.960704","TIME_SYSTEM":"UTC","RA_OF_ASC_NODE":"249.7617","PERIAPSIS":"546.278","ECCENTRICITY":"0.00013410","GP_ID":"220755126","COUNTRY_CODE":"US","ELEMENT_SET_NO":"999","MEAN_ANOMALY":"272.4050","ARG_OF_PERICENTER":"87.7092","MEAN_MOTION":"15.06402219","TLE_LINE2":"2 48361  53.0540 249.7617 0001341  87.7092 272.4050 15.06402219 89477"},{"TLE_LINE1":"1 48362U 21038K   22351.41751814 -.00000656  00000-0 -25138-4 0  9993","MEAN_MOTION_DOT":"-0.00000656","RCS_SIZE":"LARGE","OBJECT_NAME":"STARLINK-2578","EPHEMERIS_TYPE":"0","FILE":"3706671","APOAPSIS":"548.297","SEMIMAJOR_AXIS":"6925.376","BSTAR":"-0.00002513800000","LAUNCH_DATE":"2021-05-04","MEAN_ELEMENT_THEORY":"SGP4","MEAN_MOTION_DDOT":"0.0000000000000","NORAD_CAT_ID":"48362","PERIOD":"95.593","REF_FRAME":"TEME","OBJECT_TYPE":"PAYLOAD","EPOCH":"2022-12-17T10:01:13.567296","INCLINATION":"53.0542","OBJECT_ID":"2021-038K","SITE":"AFETR","REV_AT_EPOCH":"9002","DECAY_DATE":null,"CENTER_NAME":"EARTH","CLASSIFICATION_TYPE":"U","ECCENTRICITY":"0.00015250","RA_OF_ASC_NODE":"251.1655","PERIAPSIS":"546.185","TIME_SYSTEM":"UTC","TLE_LINE2":"2 48362  53.0542 251.1655 0001525  71.3392 288.7763 15.06391133 90021","MEAN_MOTION":"15.06391133","ARG_OF_PERICENTER":"71.3392","MEAN_ANOMALY":"288.7763","ELEMENT_SET_NO":"999","GP_ID":"220725217","COUNTRY_CODE":"US"},{"EPOCH":"2022-12-17T10:15:08.710560","REF_FRAME":"TEME","OBJECT_TYPE":"PAYLOAD","PERIOD":"95.592","DECAY_DATE":null,"REV_AT_EPOCH":"9009","CLASSIFICATION_TYPE":"U","CENTER_NAME":"EARTH","SITE":"AFETR","OBJECT_ID":"2021-038L","INCLINATION":"53.0545","FILE":"3706475","EPHEMERIS_TYPE":"0","OBJECT_NAME":"STARLINK-2626","RCS_SIZE":"LARGE","TLE_LINE1":"1 48363U 21038L   22351.42718415  .00001744  00000-0  13599-3 0  9999","MEAN_MOTION_DOT":"0.00001744","NORAD_CAT_ID":"48363","MEAN_MOTION_DDOT":"0.0000000000000","MEAN_ELEMENT_THEORY":"SGP4","LAUNCH_DATE":"2021-05-04","BSTAR":"0.00013599000000","SEMIMAJOR_AXIS":"6925.362","APOAPSIS":"548.175","MEAN_ANOMALY":"267.3585","ARG_OF_PERICENTER":"92.7561","TLE_LINE2":"2 48363  53.0545 246.0579 0001368  92.7561 267.3585 15.06395480 90094","MEAN_MOTION":"15.06395480","COUNTRY_CODE":"US","GP_ID":"220721204","ELEMENT_SET_NO":"999","ECCENTRICITY":"0.00013680","TIME_SYSTEM":"UTC","PERIAPSIS":"546.280","RA_OF_ASC_NODE":"246.0579"},{"APOAPSIS":"548.337","SEMIMAJOR_AXIS":"6925.387","LAUNCH_DATE":"2021-05-04","BSTAR":"0.00002794700000","MEAN_ELEMENT_THEORY":"SGP4","MEAN_MOTION_DDOT":"0.0000000000000","NORAD_CAT_ID":"48364","TLE_LINE1":"1 48364U 21038M   22351.44195965  .00000135  00000-0  27947-4 0  9997","MEAN_MOTION_DOT":"0.00000135","RCS_SIZE":"LARGE","OBJECT_NAME":"STARLINK-2611","EPHEMERIS_TYPE":"0","FILE":"3706106","INCLINATION":"53.0551","OBJECT_ID":"2021-038M","SITE":"AFETR","DECAY_DATE":null,"REV_AT_EPOCH":"9009","CLASSIFICATION_TYPE":"U","CENTER_NAME":"EARTH","PERIOD":"95.593","OBJECT_TYPE":"PAYLOAD","REF_FRAME":"TEME","EPOCH":"2022-12-17T10:36:25.313760","RA_OF_ASC_NODE":"246.1887","PERIAPSIS":"546.168","TIME_SYSTEM":"UTC","ECCENTRICITY":"0.00015660","ELEMENT_SET_NO":"999","GP_ID":"220713102","COUNTRY_CODE":"US","MEAN_MOTION":"15.06387442","TLE_LINE2":"2 48364  53.0551 246.1887 0001566  49.4766 310.6359 15.06387442 90091","ARG_OF_PERICENTER":"49.4766","MEAN_ANOMALY":"310.6359"},{"SITE":"AFETR","CENTER_NAME":"EARTH","DECAY_DATE":null,"REV_AT_EPOCH":"8956","CLASSIFICATION_TYPE":"U","INCLINATION":"53.0530","OBJECT_ID":"2021-038N","PERIOD":"95.593","OBJECT_TYPE":"PAYLOAD","REF_FRAME":"TEME","EPOCH":"2022-12-17T19:11:13.504704","MEAN_ELEMENT_THEORY":"SGP4","MEAN_MOTION_DDOT":"0.0000000000000","NORAD_CAT_ID":"48365","APOAPSIS":"548.180","SEMIMAJOR_AXIS":"6925.372","LAUNCH_DATE":"2021-05-04","BSTAR":"-0.00009048800000","EPHEMERIS_TYPE":"0","FILE":"3707070","TLE_LINE1":"1 48365U 21038N   22351.79946186 -.00001629  00000-0 -90488-4 0  9996","MEAN_MOTION_DOT":"-0.00001629","RCS_SIZE":"LARGE","OBJECT_NAME":"STARLINK-2608","GP_ID":"220755626","COUNTRY_CODE":"US","ELEMENT_SET_NO":"999","MEAN_ANOMALY":"275.5652","TLE_LINE2":"2 48365  53.0530 244.3699 0001362  84.5492 275.5652 15.06392336 89563","MEAN_MOTION":"15.06392336","ARG_OF_PERICENTER":"84.5492","TIME_SYSTEM":"UTC","RA_OF_ASC_NODE":"244.3699","PERIAPSIS":"546.294","ECCENTRICITY":"0.00013620"},{"NORAD_CAT_ID":"48366","MEAN_MOTION_DDOT":"0.0000000000000","MEAN_ELEMENT_THEORY":"SGP4","LAUNCH_DATE":"2021-05-04","BSTAR":"0.00001159000000","SEMIMAJOR_AXIS":"6925.372","APOAPSIS":"548.244","FILE":"3707070","EPHEMERIS_TYPE":"0","OBJECT_NAME":"STARLINK-2631","RCS_SIZE":"MEDIUM","MEAN_MOTION_DOT":"-0.00000109","TLE_LINE1":"1 48366U 21038P   22351.72068029 -.00000109  00000-0  11590-4 0  9999","REV_AT_EPOCH":"8961","DECAY_DATE":null,"CENTER_NAME":"EARTH","CLASSIFICATION_TYPE":"U","SITE":"AFETR","OBJECT_ID":"2021-038P","INCLINATION":"53.0530","EPOCH":"2022-12-17T17:17:46.777056","OBJECT_TYPE":"PAYLOAD","REF_FRAME":"TEME","PERIOD":"95.593","TIME_SYSTEM":"UTC","PERIAPSIS":"546.230","RA_OF_ASC_NODE":"239.7388","ECCENTRICITY":"0.00014540","COUNTRY_CODE":"US","GP_ID":"220755876","ELEMENT_SET_NO":"999","MEAN_ANOMALY":"276.2817","ARG_OF_PERICENTER":"83.8338","TLE_LINE2":"2 48366  53.0530 239.7388 0001454  83.8338 276.2817 15.06392326 89616","MEAN_MOTION":"15.06392326"},{"ECCENTRICITY":"0.00015430","TIME_SYSTEM":"UTC","PERIAPSIS":"546.185","RA_OF_ASC_NODE":"239.7517","MEAN_ANOMALY":"283.9303","ARG_OF_PERICENTER":"76.1858","TLE_LINE2":"2 48367  53.0536 239.7517 0001543  76.1858 283.9303 15.06387018 89615","MEAN_MOTION":"15.06387018","COUNTRY_CODE":"US","GP_ID":"220756128","ELEMENT_SET_NO":"999","FILE":"3707070","EPHEMERIS_TYPE":"0","OBJECT_NAME":"STARLINK-2643","RCS_SIZE":"LARGE","MEAN_MOTION_DOT":"-0.00000945","TLE_LINE1":"1 48367U 21038Q   22351.71698998 -.00000945  00000-0 -44541-4 0  9994","NORAD_CAT_ID":"48367","MEAN_MOTION_DDOT":"0.0000000000000","MEAN_ELEMENT_THEORY":"SGP4","BSTAR":"-0.00004454100000","LAUNCH_DATE":"2021-05-04","SEMIMAJOR_AXIS":"6925.388","APOAPSIS":"548.322","EPOCH":"2022-12-17T17:12:27.934272","REF_FRAME":"TEME","OBJECT_TYPE":"PAYLOAD","PERIOD":"95.593","DECAY_DATE":null,"CENTER_NAME":"EARTH","REV_AT_EPOCH":"8961","CLASSIFICATION_TYPE":"U","SITE":"AFETR","OBJECT_ID":"2021-038Q","INCLINATION":"53.0536"},{"ELEMENT_SET_NO":"999","COUNTRY_CODE":"US","GP_ID":"220756379","MEAN_MOTION":"15.06395144","TLE_LINE2":"2 48368  53.0545 239.5341 0001389  80.1140 280.0006 15.06395144 89635","ARG_OF_PERICENTER":"80.1140","MEAN_ANOMALY":"280.0006","PERIAPSIS":"546.267","RA_OF_ASC_NODE":"239.5341","TIME_SYSTEM":"UTC","ECCENTRICITY":"0.00013890","OBJECT_ID":"2021-038R","INCLINATION":"53.0545","CENTER_NAME":"EARTH","DECAY_DATE":null,"REV_AT_EPOCH":"8963","CLASSIFICATION_TYPE":"U","SITE":"AFETR","EPOCH":"2022-12-17T19:51:44.861184","PERIOD":"95.592","REF_FRAME":"TEME","OBJECT_TYPE":"PAYLOAD","SEMIMAJOR_AXIS":"6925.363","LAUNCH_DATE":"2021-05-04","BSTAR":"-0.00000352030000","APOAPSIS":"548.190","MEAN_MOTION_DDOT":"0.0000000000000","NORAD_CAT_ID":"48368","MEAN_ELEMENT_THEORY":"SGP4","OBJECT_NAME":"STARLINK-2623","TLE_LINE1":"1 48368U 21038R   22351.82760256 -.00000334  00000-0 -35203-5 0  9992","MEAN_MOTION_DOT":"-0.00000334","RCS_SIZE":"LARGE","EPHEMERIS_TYPE":"0","FILE":"3707070"},{"APOAPSIS":"548.389","SEMIMAJOR_AXIS":"6925.366","LAUNCH_DATE":"2021-05-04","BSTAR":"0.00006459900000","MEAN_ELEMENT_THEORY":"SGP4","MEAN_MOTION_DDOT":"0.0000000000000","NORAD_CAT_ID":"48369","MEAN_MOTION_DOT":"0.00000681","TLE_LINE1":"1 48369U 21038S   22351.11617884  .00000681  00000-0  64599-4 0  9995","RCS_SIZE":"LARGE","OBJECT_NAME":"STARLINK-2641","EPHEMERIS_TYPE":"0","FILE":"3705911","INCLINATION":"53.0546","OBJECT_ID":"2021-038S","SITE":"AFETR","DECAY_DATE":null,"CENTER_NAME":"EARTH","REV_AT_EPOCH":"8952","CLASSIFICATION_TYPE":"U","PERIOD":"95.592","REF_FRAME":"TEME","OBJECT_TYPE":"PAYLOAD","EPOCH":"2022-12-17T02:47:17.851776","RA_OF_ASC_NODE":"242.4481","PERIAPSIS":"546.072","TIME_SYSTEM":"UTC","ECCENTRICITY":"0.00016730","ELEMENT_SET_NO":"999","GP_ID":"220703968","COUNTRY_CODE":"US","MEAN_MOTION":"15.06394356","TLE_LINE2":"2 48369  53.0546 242.4481 0001673  65.4445 294.6718 15.06394356 89528","ARG_OF_PERICENTER":"65.4445","MEAN_ANOMALY":"294.6718"}];
